NORAD_CAT_ID,OBJECT_NAME,OBJECT_TYPE,EPOCH,MEAN_MOTION,ECCENTRICITY,INCLINATION,RA_OF_ASC_NODE,ARG_OF_PERICENTER,MEAN_ANOMALY,BSTAR,MEAN_MOTION_DOT,MEAN_MOTION_DDOT,TLE_LINE0,TLE_LINE1,TLE_LINE2,SEMIMAJOR_AXIS,PERIOD,APOGEE,PERIGEE,DECAYED
51985.0,STARLINK-3651,PAYLOAD,2022-03-16 14:00:01,15.82746405,0.0001095,53.2173,105.1663,81.2898,156.2606,-0.004489,-0.00875476,0.0,0 STARLINK-3651,1 51985U 22025AF  22075.58334491 -.00875476  00000-0 -44890-2 0  9998,2 51985  53.2173 105.1663 0001095  81.2898 156.2606 15.82746405  2374,6700.815,90.981,323.414,321.946,0.0
51985.0,STARLINK-3651,PAYLOAD,2022-03-16 20:00:01,15.82276703,0.000119,53.2176,103.9103,64.0651,158.5677,-0.0046141,-0.0087969,0.0,0 STARLINK-3651,1 51985U 22025AF  22075.83334491 -.00879690  00000-0 -46141-2 0  9999,2 51985  53.2176 103.9103 0001190  64.0651 158.5677 15.82276703  1353,6702.141,91.008,324.803,323.208,0.0
51985.0,STARLINK-3651,PAYLOAD,2022-03-17 04:00:00,15.81649611,0.0001139,53.2175,102.2397,49.6867,272.3924,-0.0047681999999999,-0.00882338,0.0,0 STARLINK-3651,1 51985U 22025AF  22076.16667824 -.00882338  00000-0 -47682-2 0  9999,2 51985  53.2175 102.2397 0001139  49.6867 272.3924 15.81649611  2464,6703.9119999999975,91.044,326.541,325.014,0.0
51985.0,STARLINK-3651,PAYLOAD,2022-03-17 14:00:01,15.80859513,0.0001122,53.2171,100.1544,69.4292,105.8967,-0.0049137,-0.00876873,0.0,0 STARLINK-3651,1 51985U 22025AF  22076.58334491 -.00876873  00000-0 -49137-2 0  9990,2 51985  53.2171 100.1544 0001122  69.4292 105.8967 15.80859513  1475,6706.146,91.09,328.7630000000001,327.258,0.0
51985.0,STARLINK-3651,PAYLOAD,2022-03-17 22:00:00,15.80228844,0.0001056,53.2174,98.4847,84.9269,188.1471,-0.0050452,-0.00874596,0.0,0 STARLINK-3651,1 51985U 22025AF  22076.91667824 -.00874596  00000-0 -50452-2 0  9998,2 51985  53.2174  98.4847 0001056  84.9269 188.1471 15.80228844  1522,6707.93,91.126,330.5030000000001,329.087,0.0
51985.0,STARLINK-3651,PAYLOAD,2022-03-18 04:00:00,15.79758386,0.0001247,53.2178,97.2359,60.0956,195.7909,-0.0051712,-0.0087701,0.0,0 STARLINK-3651,1 51985U 22025AF  22077.16667824 -.00877010  00000-0 -51712-2 0  9990,2 51985  53.2178  97.2359 0001247  60.0956 195.7909 15.79758386  2620,6709.262,91.153,331.963,330.29,0.0
51985.0,STARLINK-3651,PAYLOAD,2022-03-18 14:00:01,15.78972211,0.0001161,53.2171,95.1561,56.0004,50.2956,-0.0053633,-0.00877327,0.0,0 STARLINK-3651,1 51985U 22025AF  22077.58334491 -.00877327  00000-0 -53633-2 0  9992,2 51985  53.2171  95.1561 0001161  56.0004  50.2956 15.78972211  1630,6711.488,91.199,334.1330000000001,332.574,0.0
51985.0,STARLINK-3651,PAYLOAD,2022-03-18 22:00:00,15.78341819,0.0001157,53.2172,93.4912,70.1985,131.5766,-0.0055052,-0.00875276,0.0,0 STARLINK-3651,1 51985U 22025AF  22077.91667824 -.00875276  00000-0 -55052-2 0  9996,2 51985  53.2172  93.4912 0001157  70.1985 131.5766 15.78341819  1683,6713.275,91.235,335.917,334.3640000000001,0.0
51985.0,STARLINK-3651,PAYLOAD,2022-03-19 02:00:01,15.78026838,0.000119,53.2175,92.6606,49.7366,19.5594,-0.005579,-0.0087453,0.0,0 STARLINK-3651,1 51985U 22025AF  22078.08335648 -.00874530  00000-0 -55790-2 0  9992,2 51985  53.2175  92.6606 0001190  49.7366  19.5594 15.78026838  2764,6714.169,91.253,336.833,335.235,0.0
51985.0,STARLINK-3651,PAYLOAD,2022-03-19 14:00:01,15.77084129,9.32e-05,53.217,90.172,77.0583,313.402,-0.0058293,-0.00875582,0.0,0 STARLINK-3651,1 51985U 22025AF  22078.58334491 -.00875582  00000-0 -58293-2 0  9991,2 51985  53.2170  90.1720 0000932  77.0583 313.4020 15.77084129  1795,6716.844,91.308,339.335,338.083,0.0
51985.0,STARLINK-3651,PAYLOAD,2022-03-19 20:00:01,15.76609932,0.0001018,53.2175,88.9265,57.2321,313.2075,-0.0059335,-0.00872847,0.0,0 STARLINK-3651,1 51985U 22025AF  22078.83334491 -.00872847  00000-0 -59335-2 0  9998,2 51985  53.2175  88.9265 0001018  57.2321 313.2075 15.76609932  2888,6718.191,91.335,340.74,339.372,0.0
51985.0,STARLINK-3651,PAYLOAD,2022-03-19 22:00:01,15.76454034,0.0001195,53.2173,88.5116,56.4025,67.334,-0.0059949,-0.00875546,0.0,0 STARLINK-3651,1 51985U 22025AF  22078.91668981 -.00875546  00000-0 -59949-2 0  9991,2 51985  53.2173  88.5116 0001195  56.4025  67.3340 15.76454034  1843,6718.634,91.344,341.302,339.696,0.0
51985.0,STARLINK-3651,PAYLOAD,2022-03-20 14:00:01,15.75196453,0.0001104,53.2172,85.2015,64.2169,243.6014,-0.0063403,-0.00875766,0.0,0 STARLINK-3651,1 51985U 22025AF  22079.58334491 -.00875766  00000-0 -63403-2 0  9995,2 51985  53.2172  85.2015 0001104  64.2169 243.6014 15.75196453  1956,6722.209,91.417,344.816,343.332,0.0
51985.0,STARLINK-3651,PAYLOAD,2022-03-20 20:00:01,15.7472203,0.00011,53.2173,83.9596,66.5347,219.5616,-0.0064426999999999,-0.00871958,0.0,0 STARLINK-3651,1 51985U 22025AF  22079.83334491 -.00871958  00000-0 -64427-2 0  9999,2 51985  53.2173  83.9596 0001100  66.5347 219.5616 15.74722030  3042,6723.559,91.445,346.164,344.685,0.0
51985.0,STARLINK-3651,PAYLOAD,2022-03-20 22:00:01,15.74564944,0.0001072,53.2172,83.546,60.7087,338.1179,-0.0065001,-0.00873519,0.0,0 STARLINK-3651,1 51985U 22025AF  22079.91668981 -.00873519  00000-0 -65001-2 0  9996,2 51985  53.2172  83.5460 0001072  60.7087 338.1179 15.74564944  2007,6724.005999999999,91.454,346.592,345.151,0.0
51985.0,STARLINK-3651,PAYLOAD,2022-03-21 12:00:00,15.73285727,9.98e-05,53.2171,80.6582,74.0168,32.0918,-0.00091354,-0.00127367,0.0,0 STARLINK-3651,1 51985U 22025AF  22080.50001157 -.00127367  00000-0 -91354-3 0  9993,2 51985  53.2171  80.6582 0000998  74.0168  32.0918 15.73285727  3148,6727.651,91.528,350.18699999999984,348.844,0.0
51985.0,STARLINK-3651,PAYLOAD,2022-03-21 14:00:01,15.73215826,0.0001143,53.2171,80.2451,75.4968,142.8816,-0.00014865,-0.00021442,0.0,0 STARLINK-3651,1 51985U 22025AF  22080.58334491 -.00021442  00000-0 -14865-3 0  9990,2 51985  53.2171  80.2451 0001143  75.4968 142.8816 15.73215826  2100,6727.85,91.532,350.4840000000001,348.946,0.0
51985.0,STARLINK-3651,PAYLOAD,2022-03-21 20:00:01,15.72948867,0.0001175,53.218,79.0083,64.0967,131.159,0.002352,0.00339509,0.0,0 STARLINK-3651,1 51985U 22025AF  22080.83334491  .00339509  00000-0  23520-2 0  9999,2 51985  53.2180  79.0083 0001175  64.0967 131.1590 15.72948867  3192,6728.611,91.548,351.267,349.686,0.0
51985.0,STARLINK-3651,PAYLOAD,2022-03-21 22:00:00,15.72981657,0.0001178,53.2177,78.5951,65.9536,241.4805,0.0024481,0.00354545,0.0,0 STARLINK-3651,1 51985U 22025AF  22080.91667824  .00354545  00000-0  24481-2 0  9991,2 51985  53.2177  78.5951 0001178  65.9536 241.4805 15.72981657  2165,6728.518,91.546,351.175,349.59,0.0
51985.0,STARLINK-3651,PAYLOAD,2022-03-22 12:00:00,15.73219504,0.0001169,53.2193,75.7163,56.6158,316.5405,-0.00059898,-0.00083917,0.0,0 STARLINK-3651,1 51985U 22025AF  22081.50001157 -.00083917  00000-0 -59898-3 0  9993,2 51985  53.2193  75.7163 0001169  56.6158 316.5405 15.73219504  3307,6727.84,91.532,350.491,348.918,0.0
51985.0,STARLINK-3651,PAYLOAD,2022-03-22 14:00:01,15.73214051,0.0001146,53.2194,75.3034,60.3658,65.0238,-0.00073117,-0.00102058,0.0,0 STARLINK-3651,1 51985U 22025AF  22081.58334491 -.00102058  00000-0 -73117-3 0  9999,2 51985  53.2194  75.3034 0001146  60.3658  65.0238 15.73214051  2269,6727.855,91.532,350.491,348.949,0.0
51985.0,STARLINK-3651,PAYLOAD,2022-03-22 20:00:01,15.73119435,9.34e-05,53.2195,74.065,71.7076,30.382,0.00065612,0.00092157,0.0,0 STARLINK-3651,1 51985U 22025AF  22081.83334491  .00092157  00000-0  65612-3 0  9994,2 51985  53.2195  74.0650 0000934  71.7076  30.3820 15.73119435  3357,6728.125,91.538,350.61800000000005,349.361,0.0
51985.0,STARLINK-3651,PAYLOAD,2022-03-22 22:00:01,15.73136735,9.63e-05,53.2196,73.6524,75.2201,139.1454,0.00059952,0.00084135,0.0,0 STARLINK-3651,1 51985U 22025AF  22081.91668981  .00084135  00000-0  59952-3 0  9994,2 51985  53.2196  73.6524 0000963  75.2201 139.1454 15.73136735  2323,6728.076,91.537,350.588,349.293,0.0
51985.0,STARLINK-3651,PAYLOAD,2022-03-23 12:00:00,15.7323644,0.0001099,53.2198,70.7685,61.31800000000001,218.5507,-0.00011456,-0.0001669,0.0,0 STARLINK-3651,1 51985U 22025AF  22082.50001157 -.00016690  00000-0 -11456-3 0  9996,2 51985  53.2198  70.7685 0001099  61.3180 218.5507 15.73236440  3465,6727.791,91.531,350.396,348.917,0.0
51985.0,STARLINK-3651,PAYLOAD,2022-03-23 14:00:01,15.7326439,0.000114,53.22,70.3556,64.7326,327.3698,-0.00060789,-0.00085305,0.0,0 STARLINK-3651,1 51985U 22025AF  22082.58334491 -.00085305  00000-0 -60789-3 0  9996,2 51985  53.2200  70.3556 0001140  64.7326 327.3698 15.73264390  2428,6727.712,91.529,350.344,348.81,0.0
51985.0,STARLINK-3651,PAYLOAD,2022-03-23 22:00:00,15.73180774,0.000128,53.2204,68.7046,78.854,42.2122,0.00058449,0.00082147,0.0,0 STARLINK-3651,1 51985U 22025AF  22082.91667824  .00082147  00000-0  58449-3 0  9991,2 51985  53.2204  68.7046 0001280  78.8540  42.2122 15.73180774  2479,6727.95,91.534,350.676,348.954,0.0
51985.0,STARLINK-3651,PAYLOAD,2022-03-24 14:00:01,15.73252324,0.0001198,53.2197,65.4072,69.803,229.1716,-0.00051459,-0.00072381,0.0,0 STARLINK-3651,1 51985U 22025AF  22083.58334491 -.00072381  00000-0 -51459-3 0  9991,2 51985  53.2197  65.4072 0001198  69.8030 229.1716 15.73252324  2583,6727.746,91.53,350.417,348.805,0.0
51985.0,STARLINK-3651,PAYLOAD,2022-03-24 20:00:01,15.73174064,0.0001244,53.2192,64.169,81.23899999999998,194.4758,0.00041437,0.0005787,0.0,0 STARLINK-3651,1 51985U 22025AF  22083.83334491  .00057870  00000-0  41437-3 0  9998,2 51985  53.2192  64.1690 0001244  81.2390 194.4758 15.73174064  3674,6727.969,91.535,350.671,348.997,0.0
51985.0,STARLINK-3651,PAYLOAD,2022-03-24 22:00:00,15.73171471,0.0001305,53.2192,63.7566,84.1472,303.7977,0.00058532,0.00082232,0.0,0 STARLINK-3651,1 51985U 22025AF  22083.91667824  .00082232  00000-0  58532-3 0  9990,2 51985  53.2192  63.7566 0001305  84.1472 303.7977 15.73171471  2634,6727.977,91.535,350.72,348.964,0.0
